CCSDS_OMM_VERS = 2.0
CREATION_DATE  = 
ORIGINATOR     = 

OBJECT_NAME    = SL-4 R/B
OBJECT_ID      = 2014-021B
CENTER_NAME    = EARTH
REF_FRAME      = TEME
TIME_SYSTEM    = UTC
MEAN_ELEMENT_THEORY = SGP/SGP4

EPOCH          = 2026-03-02T13:13:48.463104
MEAN_MOTION    = 15.38895466
ECCENTRICITY   = .00981881
INCLINATION    = 51.6078
RA_OF_ASC_NODE = 12.0953
ARG_OF_PERICENTER = 76.9823
MEAN_ANOMALY   = 284.2101

EPHEMERIS_TYPE = 0
CLASSIFICATION_TYPE = U
NORAD_CAT_ID   = 39679
ELEMENT_SET_NO = 999
REV_AT_EPOCH   = 65517
BSTAR          = .39624822E-3
MEAN_MOTION_DOT = .17915E-3
MEAN_MOTION_DDOT = 0

CCSDS_OMM_VERS = 2.0
CREATION_DATE  = 
ORIGINATOR     = 

OBJECT_NAME    = ALOS-2
OBJECT_ID      = 2014-029A
CENTER_NAME    = EARTH
REF_FRAME      = TEME
TIME_SYSTEM    = UTC
MEAN_ELEMENT_THEORY = SGP/SGP4

EPOCH          = 2026-03-02T14:49:07.343040
MEAN_MOTION    = 14.79469920
ECCENTRICITY   = .00014317
INCLINATION    = 97.9200
RA_OF_ASC_NODE = 160.3174
ARG_OF_PERICENTER = 97.9737
MEAN_ANOMALY   = 262.1637

EPHEMERIS_TYPE = 0
CLASSIFICATION_TYPE = U
NORAD_CAT_ID   = 39766
ELEMENT_SET_NO = 999
REV_AT_EPOCH   = 63582
BSTAR          = .37142487E-3
MEAN_MOTION_DOT = .2723E-4
MEAN_MOTION_DDOT = 0

CCSDS_OMM_VERS = 2.0
CREATION_DATE  = 
ORIGINATOR     = 

OBJECT_NAME    = YAOGAN-29
OBJECT_ID      = 2015-069A
CENTER_NAME    = EARTH
REF_FRAME      = TEME
TIME_SYSTEM    = UTC
MEAN_ELEMENT_THEORY = SGP/SGP4

EPOCH          = 2026-03-02T15:25:04.260288
MEAN_MOTION    = 14.82987844
ECCENTRICITY   = .00023394
INCLINATION    = 98.0154
RA_OF_ASC_NODE = 90.0529
ARG_OF_PERICENTER = 48.0049
MEAN_ANOMALY   = 312.1363

EPHEMERIS_TYPE = 0
CLASSIFICATION_TYPE = U
NORAD_CAT_ID   = 41038
ELEMENT_SET_NO = 999
REV_AT_EPOCH   = 55483
BSTAR          = .14072586E-3
MEAN_MOTION_DOT = .1089E-4
MEAN_MOTION_DDOT = 0

CCSDS_OMM_VERS = 2.0
CREATION_DATE  = 
ORIGINATOR     = 

OBJECT_NAME    = ASTRO-H (HITOMI)
OBJECT_ID      = 2016-012A
CENTER_NAME    = EARTH
REF_FRAME      = TEME
TIME_SYSTEM    = UTC
MEAN_ELEMENT_THEORY = SGP/SGP4

EPOCH          = 2026-03-02T07:07:01.687584
MEAN_MOTION    = 15.09940737
ECCENTRICITY   = .00100217
INCLINATION    = 31.0003
RA_OF_ASC_NODE = 44.2536
ARG_OF_PERICENTER = 257.6794
MEAN_ANOMALY   = 102.2722

EPHEMERIS_TYPE = 0
CLASSIFICATION_TYPE = U
NORAD_CAT_ID   = 41337
ELEMENT_SET_NO = 999
REV_AT_EPOCH   = 55111
BSTAR          = .25507641E-3
MEAN_MOTION_DOT = .4339E-4
MEAN_MOTION_DDOT = 0

CCSDS_OMM_VERS = 2.0
CREATION_DATE  = 
ORIGINATOR     = 

OBJECT_NAME    = HXMT (HUIYAN)
OBJECT_ID      = 2017-034A
CENTER_NAME    = EARTH
REF_FRAME      = TEME
TIME_SYSTEM    = UTC
MEAN_ELEMENT_THEORY = SGP/SGP4

EPOCH          = 2026-03-02T11:18:19.983168
MEAN_MOTION    = 15.17350221
ECCENTRICITY   = .00321066
INCLINATION    = 43.0149
RA_OF_ASC_NODE = 56.8014
ARG_OF_PERICENTER = 191.5408
MEAN_ANOMALY   = 168.4707

EPHEMERIS_TYPE = 0
CLASSIFICATION_TYPE = U
NORAD_CAT_ID   = 42758
ELEMENT_SET_NO = 999
REV_AT_EPOCH   = 48144
BSTAR          = .32290989E-3
MEAN_MOTION_DOT = .6412E-4
MEAN_MOTION_DDOT = 0

CCSDS_OMM_VERS = 2.0
CREATION_DATE  = 
ORIGINATOR     = 

OBJECT_NAME    = SAOCOM 1A
OBJECT_ID      = 2018-076A
CENTER_NAME    = EARTH
REF_FRAME      = TEME
TIME_SYSTEM    = UTC
MEAN_ELEMENT_THEORY = SGP/SGP4

EPOCH          = 2026-03-02T14:30:20.224800
MEAN_MOTION    = 14.82159472
ECCENTRICITY   = .00012712
INCLINATION    = 97.8884
RA_OF_ASC_NODE = 249.8768
ARG_OF_PERICENTER = 84.2587
MEAN_ANOMALY   = 275.8771

EPHEMERIS_TYPE = 0
CLASSIFICATION_TYPE = U
NORAD_CAT_ID   = 43641
ELEMENT_SET_NO = 999
REV_AT_EPOCH   = 40031
BSTAR          = .88250103E-4
MEAN_MOTION_DOT = .65E-5
MEAN_MOTION_DDOT = 0

CCSDS_OMM_VERS = 2.0
CREATION_DATE  = 
ORIGINATOR     = 

OBJECT_NAME    = H-2A R/B
OBJECT_ID      = 2018-084L
CENTER_NAME    = EARTH
REF_FRAME      = TEME
TIME_SYSTEM    = UTC
MEAN_ELEMENT_THEORY = SGP/SGP4

EPOCH          = 2026-03-02T14:10:58.120608
MEAN_MOTION    = 15.40984025
ECCENTRICITY   = .00259133
INCLINATION    = 98.8738
RA_OF_ASC_NODE = 277.4639
ARG_OF_PERICENTER = 49.2078
MEAN_ANOMALY   = 311.1406

EPHEMERIS_TYPE = 0
CLASSIFICATION_TYPE = U
NORAD_CAT_ID   = 43682
ELEMENT_SET_NO = 999
REV_AT_EPOCH   = 40468
BSTAR          = .54194767E-3
MEAN_MOTION_DOT = .2253E-3
MEAN_MOTION_DDOT = 0

CCSDS_OMM_VERS = 2.0
CREATION_DATE  = 
ORIGINATOR     = 

OBJECT_NAME    = SAOCOM 1B
OBJECT_ID      = 2020-059A
CENTER_NAME    = EARTH
REF_FRAME      = TEME
TIME_SYSTEM    = UTC
MEAN_ELEMENT_THEORY = SGP/SGP4

EPOCH          = 2026-03-02T15:15:18.031104
MEAN_MOTION    = 14.82164313
ECCENTRICITY   = .00014901
INCLINATION    = 97.8884
RA_OF_ASC_NODE = 249.0056
ARG_OF_PERICENTER = 81.7079
MEAN_ANOMALY   = 278.4303

EPHEMERIS_TYPE = 0
CLASSIFICATION_TYPE = U
NORAD_CAT_ID   = 46265
ELEMENT_SET_NO = 999
REV_AT_EPOCH   = 29770
BSTAR          = .74050218E-4
MEAN_MOTION_DOT = .537E-5
MEAN_MOTION_DDOT = 0

CCSDS_OMM_VERS = 2.0
CREATION_DATE  = 
ORIGINATOR     = 

OBJECT_NAME    = CSS (TIANHE)
OBJECT_ID      = 2021-035A
CENTER_NAME    = EARTH
REF_FRAME      = TEME
TIME_SYSTEM    = UTC
MEAN_ELEMENT_THEORY = SGP/SGP4

EPOCH          = 2026-03-02T14:40:43.713120
MEAN_MOTION    = 15.60308636
ECCENTRICITY   = .00065935
INCLINATION    = 41.4650
RA_OF_ASC_NODE = 251.2174
ARG_OF_PERICENTER = 228.7236
MEAN_ANOMALY   = 131.3036

EPHEMERIS_TYPE = 0
CLASSIFICATION_TYPE = U
NORAD_CAT_ID   = 48274
ELEMENT_SET_NO = 999
REV_AT_EPOCH   = 27650
BSTAR          = .20300935E-3
MEAN_MOTION_DOT = .16798E-3
MEAN_MOTION_DDOT = 0

CCSDS_OMM_VERS = 2.0
CREATION_DATE  = 
ORIGINATOR     = 

OBJECT_NAME    = CZ-2C R/B
OBJECT_ID      = 2022-058K
CENTER_NAME    = EARTH
REF_FRAME      = TEME
TIME_SYSTEM    = UTC
MEAN_ELEMENT_THEORY = SGP/SGP4

EPOCH          = 2026-03-02T05:54:04.972896
MEAN_MOTION    = 15.53608022
ECCENTRICITY   = .00421533
INCLINATION    = 50.1902
RA_OF_ASC_NODE = 356.5623
ARG_OF_PERICENTER = 169.0449
MEAN_ANOMALY   = 191.1449

EPHEMERIS_TYPE = 0
CLASSIFICATION_TYPE = U
NORAD_CAT_ID   = 52794
ELEMENT_SET_NO = 999
REV_AT_EPOCH   = 20897
BSTAR          = .49711634E-3
MEAN_MOTION_DOT = .33239E-3
MEAN_MOTION_DDOT = 0

CCSDS_OMM_VERS = 2.0
CREATION_DATE  = 
ORIGINATOR     = 

OBJECT_NAME    = CZ-2C R/B
OBJECT_ID      = 2022-132E
CENTER_NAME    = EARTH
REF_FRAME      = TEME
TIME_SYSTEM    = UTC
MEAN_ELEMENT_THEORY = SGP/SGP4

EPOCH          = 2026-03-02T13:53:18.727872
MEAN_MOTION    = 15.61126003
ECCENTRICITY   = .002077
INCLINATION    = 97.2955
RA_OF_ASC_NODE = 64.6834
ARG_OF_PERICENTER = 113.8391
MEAN_ANOMALY   = 246.5047

EPHEMERIS_TYPE = 0
CLASSIFICATION_TYPE = U
NORAD_CAT_ID   = 54039
ELEMENT_SET_NO = 999
REV_AT_EPOCH   = 18926
BSTAR          = .48949295E-3
MEAN_MOTION_DOT = .41736E-3
MEAN_MOTION_DDOT = 0

