SL-4 R/B                
1 39679U 14021B   26061.55125536  .00017915  00000+0  39625-3 0  9999
2 39679  51.6078  12.0953 0098188  76.9823 284.2101 15.38895466655179
ALOS-2                  
1 39766U 14029A   26061.61744610  .00002723  00000+0  37142-3 0  9994
2 39766  97.9200 160.3174 0001431  97.9737 262.1637 14.79469920635825
YAOGAN-29               
1 41038U 15069A   26061.64241042  .00001089  00000+0  14073-3 0  9990
2 41038  98.0154  90.0529 0002339  48.0049 312.1363 14.82987844554831
ASTRO-H (HITOMI)        
1 41337U 16012A   26061.29654731  .00004339  00000+0  25508-3 0  9991
2 41337  31.0003  44.2536 0010021 257.6794 102.2722 15.09940737551119
HXMT (HUIYAN)           
1 42758U 17034A   26061.47106462  .00006412  00000+0  32291-3 0  9998
2 42758  43.0149  56.8014 0032106 191.5408 168.4707 15.17350221481444
SAOCOM 1A               
1 43641U 18076A   26061.60440075  .00000650  00000+0  88250-4 0  9998
2 43641  97.8884 249.8768 0001271  84.2587 275.8771 14.82159472400311
H-2A R/B                
1 43682U 18084L   26061.59095047  .00022530  00000+0  54195-3 0  9996
2 43682  98.8738 277.4639 0025913  49.2078 311.1406 15.40984025404682
SAOCOM 1B               
1 46265U 20059A   26061.63562536  .00000537  00000+0  74050-4 0  9994
2 46265  97.8884 249.0056 0001490  81.7079 278.4303 14.82164313297706
CSS (TIANHE)            
1 48274U 21035A   26061.61161705  .00016798  00000+0  20301-3 0  9997
2 48274  41.4650 251.2174 0006593 228.7236 131.3036 15.60308636276507
CZ-2C R/B               
1 52794U 22058K   26061.24589089  .00033239  00000+0  49712-3 0  9999
2 52794  50.1902 356.5623 0042153 169.0449 191.1449 15.53608022208971
CZ-2C R/B               
1 54039U 22132E   26061.57868898  .00041736  00000+0  48949-3 0  9992
2 54039  97.2955  64.6834 0020770 113.8391 246.5047 15.61126003189262
